{
  "type": "FeatureCollection",
  "features": [
    {
      "type": "Feature",
      "properties": {
        "norad_id": 41866,
        "name": "GOES 16",
        "group": "weather",
        "lat": 0.00929340343626377,
        "lon": 83.58319065931094,
        "alt_km": 35801.057660806626,
        "timestamp": "2025-12-06T07:31:39.887749+00:00",
        "meta_object_name": "GOES 16",
        "meta_object_id": "2016-071A",
        "meta_epoch": "2025-12-04T23:30:09.154368",
        "meta_mean_motion": 1.00270976,
        "meta_eccentricity": 0.00034956,
        "meta_inclination": 0.0634,
        "meta_ra_of_asc_node": 104.5647,
        "meta_arg_of_pericenter": 153.5233,
        "meta_mean_anomaly": 63.822,
        "meta_ephemeris_type": 0,
        "meta_classification_type": "U",
        "meta_norad_cat_id": 41866,
        "meta_element_set_no": 999,
        "meta_rev_at_epoch": 3315,
        "meta_bstar": 0,
        "meta_mean_motion_dot": -7.8e-07,
        "meta_mean_motion_ddot": 0,
        "tle_line1": "1 41866U 16071A   25338.97927262 -.00000078  00000+0  00000+0 0  9999",
        "tle_line2": "2 41866   0.0634 104.5647 0003495 153.5233  63.8220  1.00270976 33155"
      },
      "geometry": {
        "type": "Point",
        "coordinates": [
          83.58319065931094,
          0.00929340343626377
        ]
      }
    },
    {
      "type": "Feature",
      "properties": {
        "norad_id": 41882,
        "name": "FENGYUN 4A",
        "group": "weather",
        "lat": -1.4072561761705031,
        "lon": -47.90150294866635,
        "alt_km": 35783.658118930754,
        "timestamp": "2025-12-06T07:31:39.887761+00:00",
        "meta_object_name": "FENGYUN 4A",
        "meta_object_id": "2016-077A",
        "meta_epoch": "2025-12-05T07:49:27.297696",
        "meta_mean_motion": 1.00277171,
        "meta_eccentricity": 0.00050464,
        "meta_inclination": 1.8292,
        "meta_ra_of_asc_node": 82.4654,
        "meta_arg_of_pericenter": 142.6893,
        "meta_mean_anomaly": 90.3651,
        "meta_ephemeris_type": 0,
        "meta_classification_type": "U",
        "meta_norad_cat_id": 41882,
        "meta_element_set_no": 999,
        "meta_rev_at_epoch": 3298,
        "meta_bstar": 0,
        "meta_mean_motion_dot": -3.46e-06,
        "meta_mean_motion_ddot": 0,
        "tle_line1": "1 41882U 16077A   25339.32601039 -.00000346  00000+0  00000+0 0  9992",
        "tle_line2": "2 41882   1.8292  82.4654 0005046 142.6893  90.3651  1.00277171 32986"
      },
      "geometry": {
        "type": "Point",
        "coordinates": [
          -47.90150294866635,
          -1.4072561761705031
        ]
      }
    },
    {
      "type": "Feature",
      "properties": {
        "norad_id": 41884,
        "name": "CYGFM05",
        "group": "weather",
        "lat": 19.98533782597997,
        "lon": -122.27523762320924,
        "alt_km": 414.66324523401636,
        "timestamp": "2025-12-06T07:31:39.887773+00:00",
        "meta_object_name": "CYGFM05",
        "meta_object_id": "2016-078A",
        "meta_epoch": "2025-12-04T17:44:51.108288",
        "meta_mean_motion": 15.47193699,
        "meta_eccentricity": 0.00093933,
        "meta_inclination": 34.9585,
        "meta_ra_of_asc_node": 99.3714,
        "meta_arg_of_pericenter": 106.8166,
        "meta_mean_anomaly": 253.3587,
        "meta_ephemeris_type": 0,
        "meta_classification_type": "U",
        "meta_norad_cat_id": 41884,
        "meta_element_set_no": 999,
        "meta_rev_at_epoch": 49852,
        "meta_bstar": 0.00067072561,
        "meta_mean_motion_dot": 0.00035301,
        "meta_mean_motion_ddot": 0,
        "tle_line1": "1 41884U 16078A   25338.73948042  .00035301  00000+0  67073-3 0  9992",
        "tle_line2": "2 41884  34.9585  99.3714 0009393 106.8166 253.3587 15.47193699498521"
      },
      "geometry": {
        "type": "Point",
        "coordinates": [
          -122.27523762320924,
          19.98533782597997
        ]
      }
    },
    {
      "type": "Feature",
      "properties": {
        "norad_id": 41885,
        "name": "CYGFM04",
        "group": "weather",
        "lat": -21.679112111294543,
        "lon": 29.341301945956754,
        "alt_km": 423.68748597673675,
        "timestamp": "2025-12-06T07:31:39.887798+00:00",
        "meta_object_name": "CYGFM04",
        "meta_object_id": "2016-078B",
        "meta_epoch": "2025-12-05T06:58:02.380512",
        "meta_mean_motion": 15.49899257,
        "meta_eccentricity": 0.00085535,
        "meta_inclination": 34.9353,
        "meta_ra_of_asc_node": 70.7664,
        "meta_arg_of_pericenter": 142.1498,
        "meta_mean_anomaly": 217.9826,
        "meta_ephemeris_type": 0,
        "meta_classification_type": "U",
        "meta_norad_cat_id": 41885,
        "meta_element_set_no": 999,
        "meta_rev_at_epoch": 49878,
        "meta_bstar": 0.00059246999,
        "meta_mean_motion_dot": 0.00034278,
        "meta_mean_motion_ddot": 0,
        "tle_line1": "1 41885U 16078B   25339.29030533  .00034278  00000+0  59247-3 0  9998",
        "tle_line2": "2 41885  34.9353  70.7664 0008553 142.1498 217.9826 15.49899257498785"
      },
      "geometry": {
        "type": "Point",
        "coordinates": [
          29.341301945956754,
          -21.679112111294543
        ]
      }
    },
    {
      "type": "Feature",
      "properties": {
        "norad_id": 41886,
        "name": "CYGFM02",
        "group": "weather",
        "lat": -29.322940205042006,
        "lon": 8.9095908396489,
        "alt_km": 420.6341633519687,
        "timestamp": "2025-12-06T07:31:39.887811+00:00",
        "meta_object_name": "CYGFM02",
        "meta_object_id": "2016-078C",
        "meta_epoch": "2025-12-05T07:04:08.029632",
        "meta_mean_motion": 15.51248378,
        "meta_eccentricity": 0.00102402,
        "meta_inclination": 34.9442,
        "meta_ra_of_asc_node": 69.1599,
        "meta_arg_of_pericenter": 141.5987,
        "meta_mean_anomaly": 218.5466,
        "meta_ephemeris_type": 0,
        "meta_classification_type": "U",
        "meta_norad_cat_id": 41886,
        "meta_element_set_no": 999,
        "meta_rev_at_epoch": 49891,
        "meta_bstar": 0.00059837355,
        "meta_mean_motion_dot": 0.00036361,
        "meta_mean_motion_ddot": 0,
        "tle_line1": "1 41886U 16078C   25339.29453738  .00036361  00000+0  59837-3 0  9995",
        "tle_line2": "2 41886  34.9442  69.1599 0010240 141.5987 218.5466 15.51248378498913"
      },
      "geometry": {
        "type": "Point",
        "coordinates": [
          8.9095908396489,
          -29.322940205042006
        ]
      }
    },
    {
      "type": "Feature",
      "properties": {
        "norad_id": 41887,
        "name": "CYGFM01",
        "group": "weather",
        "lat": 3.2576917132878935,
        "lon": -93.18716064667476,
        "alt_km": 418.42377743181805,
        "timestamp": "2025-12-06T07:31:39.887822+00:00",
        "meta_object_name": "CYGFM01",
        "meta_object_id": "2016-078D",
        "meta_epoch": "2025-12-04T17:37:43.596768",
        "meta_mean_motion": 15.47761189,
        "meta_eccentricity": 0.00089989,
        "meta_inclination": 34.9415,
        "meta_ra_of_asc_node": 101.809,
        "meta_arg_of_pericenter": 98.3957,
        "meta_mean_anomaly": 261.7784,
        "meta_ephemeris_type": 0,
        "meta_classification_type": "U",
        "meta_norad_cat_id": 41887,
        "meta_element_set_no": 999,
        "meta_rev_at_epoch": 49846,
        "meta_bstar": 0.00070294762,
        "meta_mean_motion_dot": 0.00037747,
        "meta_mean_motion_ddot": 0,
        "tle_line1": "1 41887U 16078D   25338.73453237  .00037747  00000+0  70295-3 0  9998",
        "tle_line2": "2 41887  34.9415 101.8090 0008998  98.3957 261.7784 15.47761189498465"
      },
      "geometry": {
        "type": "Point",
        "coordinates": [
          -93.18716064667476,
          3.2576917132878935
        ]
      }
    },
    {
      "type": "Feature",
      "properties": {
        "norad_id": 41888,
        "name": "CYGFM08",
        "group": "weather",
        "lat": -8.458849023169774,
        "lon": -93.14716219807083,
        "alt_km": 415.3289094009424,
        "timestamp": "2025-12-06T07:31:39.887833+00:00",
        "meta_object_name": "CYGFM08",
        "meta_object_id": "2016-078E",
        "meta_epoch": "2025-12-05T07:29:25.554912",
        "meta_mean_motion": 15.48979446,
        "meta_eccentricity": 0.00107366,
        "meta_inclination": 34.9459,
        "meta_ra_of_asc_node": 81.1133,
        "meta_arg_of_pericenter": 129.6344,
        "meta_mean_anomaly": 230.5327,
        "meta_ephemeris_type": 0,
        "meta_classification_type": "U",
        "meta_norad_cat_id": 41888,
        "meta_element_set_no": 999,
        "meta_rev_at_epoch": 49878,
        "meta_bstar": 0.00059707606,
        "meta_mean_motion_dot": 0.00033462,
        "meta_mean_motion_ddot": 0,
        "tle_line1": "1 41888U 16078E   25339.31210133  .00033462  00000+0  59708-3 0  9996",
        "tle_line2": "2 41888  34.9459  81.1133 0010736 129.6344 230.5327 15.48979446498783"
      },
      "geometry": {
        "type": "Point",
        "coordinates": [
          -93.14716219807083,
          -8.458849023169774
        ]
      }
    }
  ]
}